start=new Date('2022-05-19T00:00:00.000Z').valueOf();
sats=[{"OBJECT_NAME":"STARLINK-1277","DECAY_DATE":null,"TLE_LINE2":"2 45369  53.0529 289.1301 0001478  70.1283 289.9865 15.06402503120149","MEAN_MOTION_DDOT":"0.0000000000000","RA_OF_ASC_NODE":"289.1301","ARG_OF_PERICENTER":"70.1283","ECCENTRICITY":"0.00014780","EPOCH":"2022-05-19T02:51:12.236832","PERIOD":"95.592","TLE_LINE1":"1 45369U 20019K   22139.11889163  .00001975  00000-0  15141-3 0  9990","COUNTRY_CODE":"US","MEAN_ANOMALY":"289.9865","EPHEMERIS_TYPE":"0","BSTAR":"0.00015141000000","OBJECT_ID":"2020-019K","CLASSIFICATION_TYPE":"U","INCLINATION":"53.0529","SEMIMAJOR_AXIS":"6925.341","REF_FRAME":"TEME","APOAPSIS":"548.229","LAUNCH_DATE":"2020-03-18","PERIAPSIS":"546.182","MEAN_MOTION_DOT":"0.00001975","GP_ID":"203919275","SITE":"AFETR","OBJECT_TYPE":"PAYLOAD","MEAN_MOTION":"15.06402503","ELEMENT_SET_NO":"999","RCS_SIZE":"LARGE","TIME_SYSTEM":"UTC","NORAD_CAT_ID":"45369","REV_AT_EPOCH":"12014","FILE":"3452814","MEAN_ELEMENT_THEORY":"SGP4","CENTER_NAME":"EARTH"},{"OBJECT_NAME":"STARLINK-1281","DECAY_DATE":null,"MEAN_MOTION_DDOT":"0.0000000000000","TLE_LINE2":"2 45370  53.0554 289.1876 0001637  77.1810 282.9362 15.06402625120113","RA_OF_ASC_NODE":"289.1876","ARG_OF_PERICENTER":"77.1810","ECCENTRICITY":"0.00016370","EPOCH":"2022-05-19T02:36:38.599776","TLE_LINE1":"1 45370U 20019L   22139.10878009  .00000085  00000-0  24625-4 0  9997","PERIOD":"95.592","COUNTRY_CODE":"US","MEAN_ANOMALY":"282.9362","EPHEMERIS_TYPE":"0","BSTAR":"0.00002462500000","OBJECT_ID":"2020-019L","CLASSIFICATION_TYPE":"U","INCLINATION":"53.0554","SEMIMAJOR_AXIS":"6925.341","REF_FRAME":"TEME","LAUNCH_DATE":"2020-03-18","APOAPSIS":"548.339","PERIAPSIS":"546.072","MEAN_MOTION_DOT":"0.00000085","GP_ID":"203919247","SITE":"AFETR","OBJECT_TYPE":"PAYLOAD","MEAN_MOTION":"15.06402625","ELEMENT_SET_NO":"999","RCS_SIZE":"LARGE","TIME_SYSTEM":"UTC","NORAD_CAT_ID":"45370","REV_AT_EPOCH":"12011","FILE":"3452812","MEAN_ELEMENT_THEORY":"SGP4","CENTER_NAME":"EARTH"},{"MEAN_MOTION":"15.06404701","ELEMENT_SET_NO":"999","SITE":"AFETR","OBJECT_TYPE":"PAYLOAD","GP_ID":"203919258","MEAN_MOTION_DOT":"0.00005320","PERIAPSIS":"546.212","REF_FRAME":"TEME","SEMIMAJOR_AXIS":"6925.334","LAUNCH_DATE":"2020-03-18","APOAPSIS":"548.186","CENTER_NAME":"EARTH","FILE":"3452813","MEAN_ELEMENT_THEORY":"SGP4","REV_AT_EPOCH":"12014","TIME_SYSTEM":"UTC","RCS_SIZE":"LARGE","NORAD_CAT_ID":"45371","ECCENTRICITY":"0.00014250","EPOCH":"2022-05-19T03:19:06.340512","RA_OF_ASC_NODE":"289.0507","ARG_OF_PERICENTER":"84.0030","TLE_LINE2":"2 45371  53.0557 289.0507 0001425  84.0030 276.1121 15.06404701120141","MEAN_MOTION_DDOT":"0.0000000000000","DECAY_DATE":null,"OBJECT_NAME":"STARLINK-1287","CLASSIFICATION_TYPE":"U","OBJECT_ID":"2020-019M","INCLINATION":"53.0557","BSTAR":"0.00037573000000","EPHEMERIS_TYPE":"0","COUNTRY_CODE":"US","TLE_LINE1":"1 45371U 20019M   22139.13826783  .00005320  00000-0  37573-3 0  9995","PERIOD":"95.592","MEAN_ANOMALY":"276.1121"},{"TLE_LINE2":"2 45372  53.0507 288.9881 0001722  75.4657 284.6523 15.06402430120146","MEAN_MOTION_DDOT":"0.0000000000000","OBJECT_NAME":"STARLINK-1288","DECAY_DATE":null,"EPOCH":"2022-05-19T03:40:20.214336","ECCENTRICITY":"0.00017220","ARG_OF_PERICENTER":"75.4657","RA_OF_ASC_NODE":"288.9881","EPHEMERIS_TYPE":"0","MEAN_ANOMALY":"284.6523","TLE_LINE1":"1 45372U 20019N   22139.15301174  .00001554  00000-0  12321-3 0  9999","PERIOD":"95.592","COUNTRY_CODE":"US","INCLINATION":"53.0507","OBJECT_ID":"2020-019N","CLASSIFICATION_TYPE":"U","BSTAR":"0.00012321000000","PERIAPSIS":"546.014","MEAN_MOTION_DOT":"0.00001554","GP_ID":"203919759","LAUNCH_DATE":"2020-03-18","APOAPSIS":"548.399","SEMIMAJOR_AXIS":"6925.341","REF_FRAME":"TEME","ELEMENT_SET_NO":"999","MEAN_MOTION":"15.06402430","OBJECT_TYPE":"PAYLOAD","SITE":"AFETR","REV_AT_EPOCH":"12014","NORAD_CAT_ID":"45372","RCS_SIZE":"LARGE","TIME_SYSTEM":"UTC","CENTER_NAME":"EARTH","MEAN_ELEMENT_THEORY":"SGP4","FILE":"3452813"},{"EPOCH":"2022-05-19T03:13:48.601056","ECCENTRICITY":"0.00014510","ARG_OF_PERICENTER":"82.7548","RA_OF_ASC_NODE":"289.0564","MEAN_MOTION_DDOT":"0.0000000000000","TLE_LINE2":"2 45373  53.0539 289.0564 0001451  82.7548 277.3606 15.06368945120144","DECAY_DATE":null,"OBJECT_NAME":"STARLINK-1295","INCLINATION":"53.0539","CLASSIFICATION_TYPE":"U","OBJECT_ID":"2020-019P","BSTAR":"0.00039819000000","EPHEMERIS_TYPE":"0","MEAN_ANOMALY":"277.3606","COUNTRY_CODE":"US","TLE_LINE1":"1 45373U 20019P   22139.13459029  .00005650  00000-0  39819-3 0  9993","PERIOD":"95.594","ELEMENT_SET_NO":"999","MEAN_MOTION":"15.06368945","OBJECT_TYPE":"PAYLOAD","SITE":"AFETR","GP_ID":"203916349","PERIAPSIS":"546.304","MEAN_MOTION_DOT":"0.00005650","LAUNCH_DATE":"2020-03-18","APOAPSIS":"548.314","REF_FRAME":"TEME","SEMIMAJOR_AXIS":"6925.444","CENTER_NAME":"EARTH","MEAN_ELEMENT_THEORY":"SGP4","FILE":"3452700","REV_AT_EPOCH":"12014","NORAD_CAT_ID":"45373","TIME_SYSTEM":"UTC","RCS_SIZE":"LARGE"},{"MEAN_ELEMENT_THEORY":"SGP4","FILE":"3452284","CENTER_NAME":"EARTH","NORAD_CAT_ID":"45374","TIME_SYSTEM":"UTC","RCS_SIZE":"LARGE","REV_AT_EPOCH":"12009","OBJECT_TYPE":"PAYLOAD","SITE":"AFETR","ELEMENT_SET_NO":"999","MEAN_MOTION":"15.06393715","APOAPSIS":"548.162","LAUNCH_DATE":"2020-03-18","REF_FRAME":"TEME","SEMIMAJOR_AXIS":"6925.368","GP_ID":"203881642","MEAN_MOTION_DOT":"-0.00000282","PERIAPSIS":"546.304","BSTAR":"-0.00000002277700","INCLINATION":"53.0547","CLASSIFICATION_TYPE":"U","OBJECT_ID":"2020-019Q","MEAN_ANOMALY":"281.5770","COUNTRY_CODE":"US","TLE_LINE1":"1 45374U 20019Q   22138.79916048 -.00000282  00000-0 -22777-7 0  9991","PERIOD":"95.593","EPHEMERIS_TYPE":"0","ARG_OF_PERICENTER":"78.5369","RA_OF_ASC_NODE":"290.5652","EPOCH":"2022-05-18T19:10:47.465472","ECCENTRICITY":"0.00013410","DECAY_DATE":null,"OBJECT_NAME":"STARLINK-1300","MEAN_MOTION_DDOT":"0.0000000000000","TLE_LINE2":"2 45374  53.0547 290.5652 0001341  78.5369 281.5770 15.06393715120097"},{"RCS_SIZE":"LARGE","TIME_SYSTEM":"UTC","NORAD_CAT_ID":"45375","REV_AT_EPOCH":"12014","FILE":"3452819","MEAN_ELEMENT_THEORY":"SGP4","CENTER_NAME":"EARTH","SEMIMAJOR_AXIS":"6925.348","REF_FRAME":"TEME","LAUNCH_DATE":"2020-03-18","APOAPSIS":"548.344","MEAN_MOTION_DOT":"0.00000572","PERIAPSIS":"546.082","GP_ID":"203919856","SITE":"AFETR","OBJECT_TYPE":"PAYLOAD","MEAN_MOTION":"15.06400209","ELEMENT_SET_NO":"999","PERIOD":"95.592","TLE_LINE1":"1 45375U 20019R   22139.14564173  .00000572  00000-0  57322-4 0  9991","COUNTRY_CODE":"US","MEAN_ANOMALY":"283.4515","EPHEMERIS_TYPE":"0","BSTAR":"0.00005732200000","OBJECT_ID":"2020-019R","CLASSIFICATION_TYPE":"U","INCLINATION":"53.0505","OBJECT_NAME":"STARLINK-1302","DECAY_DATE":null,"TLE_LINE2":"2 45375  53.0505 289.0116 0001633  76.6656 283.4515 15.06400209120143","MEAN_MOTION_DDOT":"0.0000000000000","RA_OF_ASC_NODE":"289.0116","ARG_OF_PERICENTER":"76.6656","ECCENTRICITY":"0.00016330","EPOCH":"2022-05-19T03:29:43.445472"},{"REV_AT_EPOCH":"12010","TIME_SYSTEM":"UTC","RCS_SIZE":"LARGE","NORAD_CAT_ID":"45376","CENTER_NAME":"EARTH","FILE":"3452819","MEAN_ELEMENT_THEORY":"SGP4","GP_ID":"203919857","MEAN_MOTION_DOT":"0.00003260","PERIAPSIS":"546.203","REF_FRAME":"TEME","SEMIMAJOR_AXIS":"6925.319","LAUNCH_DATE":"2020-03-18","APOAPSIS":"548.165","MEAN_MOTION":"15.06409620","ELEMENT_SET_NO":"999","SITE":"AFETR","OBJECT_TYPE":"PAYLOAD","EPHEMERIS_TYPE":"0","COUNTRY_CODE":"US","TLE_LINE1":"1 45376U 20019S   22138.89867890  .00003260  00000-0  23759-3 0  9998","PERIOD":"95.592","MEAN_ANOMALY":"273.6289","CLASSIFICATION_TYPE":"U","OBJECT_ID":"2020-019S","INCLINATION":"53.0514","BSTAR":"0.00023759000000","MEAN_MOTION_DDOT":"0.0000000000000","TLE_LINE2":"2 45376  53.0514 290.1316 0001416  86.4862 273.6289 15.06409620120107","DECAY_DATE":null,"OBJECT_NAME":"STARLINK-1304","ECCENTRICITY":"0.00014160","EPOCH":"2022-05-18T21:34:05.856960","RA_OF_ASC_NODE":"290.1316","ARG_OF_PERICENTER":"86.4862"},{"CENTER_NAME":"EARTH","FILE":"3452819","MEAN_ELEMENT_THEORY":"SGP4","REV_AT_EPOCH":"12014","RCS_SIZE":"LARGE","TIME_SYSTEM":"UTC","NORAD_CAT_ID":"45377","MEAN_MOTION":"15.06391867","ELEMENT_SET_NO":"999","SITE":"AFETR","OBJECT_TYPE":"PAYLOAD","PERIAPSIS":"546.237","MEAN_MOTION_DOT":"0.00000748","GP_ID":"203919360","SEMIMAJOR_AXIS":"6925.373","REF_FRAME":"TEME","LAUNCH_DATE":"2020-03-18","APOAPSIS":"548.240","OBJECT_ID":"2020-019T","CLASSIFICATION_TYPE":"U","INCLINATION":"53.0542","BSTAR":"0.00006912100000","EPHEMERIS_TYPE":"0","PERIOD":"95.593","TLE_LINE1":"1 45377U 20019T   22139.12353210  .00000748  00000-0  69121-4 0  9994","COUNTRY_CODE":"US","MEAN_ANOMALY":"281.5533","ECCENTRICITY":"0.00014460","EPOCH":"2022-05-19T02:57:53.173440","RA_OF_ASC_NODE":"289.1024","ARG_OF_PERICENTER":"78.5618","TLE_LINE2":"2 45377  53.0542 289.1024 0001446  78.5618 281.5533 15.06391867120144","MEAN_MOTION_DDOT":"0.0000000000000","OBJECT_NAME":"STARLINK-1305","DECAY_DATE":null},{"PERIAPSIS":"545.627","MEAN_MOTION_DOT":"0.00011077","GP_ID":"203919874","APOAPSIS":"549.089","LAUNCH_DATE":"2020-03-18","SEMIMAJOR_AXIS":"6925.493","REF_FRAME":"TEME","ELEMENT_SET_NO":"999","MEAN_MOTION":"15.06352868","OBJECT_TYPE":"PAYLOAD","SITE":"AFETR","REV_AT_EPOCH":"12014","NORAD_CAT_ID":"45378","RCS_SIZE":"LARGE","TIME_SYSTEM":"UTC","CENTER_NAME":"EARTH","MEAN_ELEMENT_THEORY":"SGP4","FILE":"3452820","TLE_LINE2":"2 45378  53.0491 289.1601 0002500  80.3922 279.7349 15.06352868120142","MEAN_MOTION_DDOT":"0.0000000000000","OBJECT_NAME":"STARLINK-1310","DECAY_DATE":null,"EPOCH":"2022-05-19T02:41:58.422336","ECCENTRICITY":"0.00025000","ARG_OF_PERICENTER":"80.3922","RA_OF_ASC_NODE":"289.1601","EPHEMERIS_TYPE":"0","MEAN_ANOMALY":"279.7349","PERIOD":"95.595","TLE_LINE1":"1 45378U 20019U   22139.11248174  .00011077  00000-0  76229-3 0  9999","COUNTRY_CODE":"US","INCLINATION":"53.0491","OBJECT_ID":"2020-019U","CLASSIFICATION_TYPE":"U","BSTAR":"0.00076229000000"}];
